CCSDS_OMM_VERS = 2.0
CREATION_DATE  = 
ORIGINATOR     = 

OBJECT_NAME    = STARLINK-36341
OBJECT_ID      = 2026-036Q
CENTER_NAME    = EARTH
REF_FRAME      = TEME
TIME_SYSTEM    = UTC
MEAN_ELEMENT_THEORY = SGP/SGP4

EPOCH          = 2026-03-14T06:00:02.000160
MEAN_MOTION    = 15.59247172
ECCENTRICITY   = .00014718
INCLINATION    = 42.9993
RA_OF_ASC_NODE = 222.2543
ARG_OF_PERICENTER = 273.2317
MEAN_ANOMALY   = 245.4100

EPHEMERIS_TYPE = 0
CLASSIFICATION_TYPE = U
NORAD_CAT_ID   = 67918
ELEMENT_SET_NO = 999
REV_AT_EPOCH   = 438
BSTAR          = -.26780484E-1
MEAN_MOTION_DOT = -.1909074E-1
MEAN_MOTION_DDOT = 0

CCSDS_OMM_VERS = 2.0
CREATION_DATE  = 
ORIGINATOR     = 

OBJECT_NAME    = STARLINK-36663
OBJECT_ID      = 2026-036R
CENTER_NAME    = EARTH
REF_FRAME      = TEME
TIME_SYSTEM    = UTC
MEAN_ELEMENT_THEORY = SGP/SGP4

EPOCH          = 2026-03-14T06:00:02.000160
MEAN_MOTION    = 15.74022426
ECCENTRICITY   = .00017286
INCLINATION    = 42.9992
RA_OF_ASC_NODE = 221.7793
ARG_OF_PERICENTER = 269.4673
MEAN_ANOMALY   = 80.6318

EPHEMERIS_TYPE = 0
CLASSIFICATION_TYPE = U
NORAD_CAT_ID   = 67919
ELEMENT_SET_NO = 999
REV_AT_EPOCH   = 438
BSTAR          = -.14795755E-1
MEAN_MOTION_DOT = -.1891655E-1
MEAN_MOTION_DDOT = 0

CCSDS_OMM_VERS = 2.0
CREATION_DATE  = 
ORIGINATOR     = 

OBJECT_NAME    = STARLINK-36375
OBJECT_ID      = 2026-036S
CENTER_NAME    = EARTH
REF_FRAME      = TEME
TIME_SYSTEM    = UTC
MEAN_ELEMENT_THEORY = SGP/SGP4

EPOCH          = 2026-03-14T06:00:02.000160
MEAN_MOTION    = 15.68176066
ECCENTRICITY   = .00017051
INCLINATION    = 42.9993
RA_OF_ASC_NODE = 221.8949
ARG_OF_PERICENTER = 265.0945
MEAN_ANOMALY   = 38.5971

EPHEMERIS_TYPE = 0
CLASSIFICATION_TYPE = U
NORAD_CAT_ID   = 67920
ELEMENT_SET_NO = 999
REV_AT_EPOCH   = 438
BSTAR          = -.18928887E-1
MEAN_MOTION_DOT = -.1925456E-1
MEAN_MOTION_DDOT = 0

CCSDS_OMM_VERS = 2.0
CREATION_DATE  = 
ORIGINATOR     = 

OBJECT_NAME    = STARLINK-36405
OBJECT_ID      = 2026-036T
CENTER_NAME    = EARTH
REF_FRAME      = TEME
TIME_SYSTEM    = UTC
MEAN_ELEMENT_THEORY = SGP/SGP4

EPOCH          = 2026-03-14T06:00:02.000160
MEAN_MOTION    = 15.59453215
ECCENTRICITY   = .00014887
INCLINATION    = 42.9994
RA_OF_ASC_NODE = 222.2238
ARG_OF_PERICENTER = 273.1876
MEAN_ANOMALY   = 258.1109

EPHEMERIS_TYPE = 0
CLASSIFICATION_TYPE = U
NORAD_CAT_ID   = 67921
ELEMENT_SET_NO = 999
REV_AT_EPOCH   = 438
BSTAR          = -.26428827E-1
MEAN_MOTION_DOT = -.1900203E-1
MEAN_MOTION_DDOT = 0

CCSDS_OMM_VERS = 2.0
CREATION_DATE  = 
ORIGINATOR     = 

OBJECT_NAME    = STARLINK-36383
OBJECT_ID      = 2026-036U
CENTER_NAME    = EARTH
REF_FRAME      = TEME
TIME_SYSTEM    = UTC
MEAN_ELEMENT_THEORY = SGP/SGP4

EPOCH          = 2026-03-14T02:49:25.213152
MEAN_MOTION    = 15.82312174
ECCENTRICITY   = .00017174
INCLINATION    = 42.9990
RA_OF_ASC_NODE = 222.4786
ARG_OF_PERICENTER = 286.4256
MEAN_ANOMALY   = 73.6427

EPHEMERIS_TYPE = 0
CLASSIFICATION_TYPE = U
NORAD_CAT_ID   = 67922
ELEMENT_SET_NO = 999
REV_AT_EPOCH   = 437
BSTAR          = .19370722E-2
MEAN_MOTION_DOT = .434466E-2
MEAN_MOTION_DDOT = 0

CCSDS_OMM_VERS = 2.0
CREATION_DATE  = 
ORIGINATOR     = 

OBJECT_NAME    = STARLINK-36406
OBJECT_ID      = 2026-036V
CENTER_NAME    = EARTH
REF_FRAME      = TEME
TIME_SYSTEM    = UTC
MEAN_ELEMENT_THEORY = SGP/SGP4

EPOCH          = 2026-03-14T06:00:02.000160
MEAN_MOTION    = 15.54977272
ECCENTRICITY   = .00018477
INCLINATION    = 42.9990
RA_OF_ASC_NODE = 222.4380
ARG_OF_PERICENTER = 273.5477
MEAN_ANOMALY   = 171.1103

EPHEMERIS_TYPE = 0
CLASSIFICATION_TYPE = U
NORAD_CAT_ID   = 67923
ELEMENT_SET_NO = 999
REV_AT_EPOCH   = 438
BSTAR          = -.30785231E-1
MEAN_MOTION_DOT = -.1872341E-1
MEAN_MOTION_DDOT = 0

CCSDS_OMM_VERS = 2.0
CREATION_DATE  = 
ORIGINATOR     = 

OBJECT_NAME    = STARLINK-36714
OBJECT_ID      = 2026-036W
CENTER_NAME    = EARTH
REF_FRAME      = TEME
TIME_SYSTEM    = UTC
MEAN_ELEMENT_THEORY = SGP/SGP4

EPOCH          = 2026-03-14T06:00:02.000160
MEAN_MOTION    = 15.68776017
ECCENTRICITY   = .00017163
INCLINATION    = 42.9994
RA_OF_ASC_NODE = 221.8343
ARG_OF_PERICENTER = 268.3228
MEAN_ANOMALY   = 59.4937

EPHEMERIS_TYPE = 0
CLASSIFICATION_TYPE = U
NORAD_CAT_ID   = 67924
ELEMENT_SET_NO = 999
REV_AT_EPOCH   = 438
BSTAR          = -.18424378E-1
MEAN_MOTION_DOT = -.1921946E-1
MEAN_MOTION_DDOT = 0

CCSDS_OMM_VERS = 2.0
CREATION_DATE  = 
ORIGINATOR     = 

OBJECT_NAME    = STARLINK-36726
OBJECT_ID      = 2026-036X
CENTER_NAME    = EARTH
REF_FRAME      = TEME
TIME_SYSTEM    = UTC
MEAN_ELEMENT_THEORY = SGP/SGP4

EPOCH          = 2026-03-14T06:00:02.000160
MEAN_MOTION    = 15.59219828
ECCENTRICITY   = .00015249
INCLINATION    = 42.9993
RA_OF_ASC_NODE = 222.1908
ARG_OF_PERICENTER = 275.6724
MEAN_ANOMALY   = 268.1985

EPHEMERIS_TYPE = 0
CLASSIFICATION_TYPE = U
NORAD_CAT_ID   = 67925
ELEMENT_SET_NO = 999
REV_AT_EPOCH   = 438
BSTAR          = -.26651268E-1
MEAN_MOTION_DOT = -.1899214E-1
MEAN_MOTION_DDOT = 0

CCSDS_OMM_VERS = 2.0
CREATION_DATE  = 
ORIGINATOR     = 

OBJECT_NAME    = STARLINK-36758
OBJECT_ID      = 2026-036Y
CENTER_NAME    = EARTH
REF_FRAME      = TEME
TIME_SYSTEM    = UTC
MEAN_ELEMENT_THEORY = SGP/SGP4

EPOCH          = 2026-03-14T06:00:02.000160
MEAN_MOTION    = 15.66223221
ECCENTRICITY   = .00016992
INCLINATION    = 42.9990
RA_OF_ASC_NODE = 221.8919
ARG_OF_PERICENTER = 266.4019
MEAN_ANOMALY   = 38.0252

EPHEMERIS_TYPE = 0
CLASSIFICATION_TYPE = U
NORAD_CAT_ID   = 67926
ELEMENT_SET_NO = 999
REV_AT_EPOCH   = 438
BSTAR          = -.20475056E-1
MEAN_MOTION_DOT = -.1922412E-1
MEAN_MOTION_DDOT = 0

CCSDS_OMM_VERS = 2.0
CREATION_DATE  = 
ORIGINATOR     = 

OBJECT_NAME    = STARLINK-36728
OBJECT_ID      = 2026-036Z
CENTER_NAME    = EARTH
REF_FRAME      = TEME
TIME_SYSTEM    = UTC
MEAN_ELEMENT_THEORY = SGP/SGP4

EPOCH          = 2026-03-14T06:00:02.000160
MEAN_MOTION    = 15.69652951
ECCENTRICITY   = .00017581
INCLINATION    = 42.9991
RA_OF_ASC_NODE = 221.7666
ARG_OF_PERICENTER = 270.2298
MEAN_ANOMALY   = 84.3223

EPHEMERIS_TYPE = 0
CLASSIFICATION_TYPE = U
NORAD_CAT_ID   = 67927
ELEMENT_SET_NO = 999
REV_AT_EPOCH   = 438
BSTAR          = -.17776102E-1
MEAN_MOTION_DOT = -.1923485E-1
MEAN_MOTION_DDOT = 0

CCSDS_OMM_VERS = 2.0
CREATION_DATE  = 
ORIGINATOR     = 

OBJECT_NAME    = STARLINK-36771
OBJECT_ID      = 2026-036AA
CENTER_NAME    = EARTH
REF_FRAME      = TEME
TIME_SYSTEM    = UTC
MEAN_ELEMENT_THEORY = SGP/SGP4

EPOCH          = 2026-03-14T06:00:02.000160
MEAN_MOTION    = 15.67895647
ECCENTRICITY   = .00017405
INCLINATION    = 42.9992
RA_OF_ASC_NODE = 221.8272
ARG_OF_PERICENTER = 267.3824
MEAN_ANOMALY   = 62.8448

EPHEMERIS_TYPE = 0
CLASSIFICATION_TYPE = U
NORAD_CAT_ID   = 67928
ELEMENT_SET_NO = 999
REV_AT_EPOCH   = 438
BSTAR          = -.19165898E-1
MEAN_MOTION_DOT = -.1926894E-1
MEAN_MOTION_DDOT = 0

CCSDS_OMM_VERS = 2.0
CREATION_DATE  = 
ORIGINATOR     = 

OBJECT_NAME    = STARLINK-36809
OBJECT_ID      = 2026-036AB
CENTER_NAME    = EARTH
REF_FRAME      = TEME
TIME_SYSTEM    = UTC
MEAN_ELEMENT_THEORY = SGP/SGP4

EPOCH          = 2026-03-14T06:00:02.000160
MEAN_MOTION    = 15.67917315
ECCENTRICITY   = .00018092
INCLINATION    = 42.9991
RA_OF_ASC_NODE = 221.8046
ARG_OF_PERICENTER = 270.1452
MEAN_ANOMALY   = 68.9205

EPHEMERIS_TYPE = 0
CLASSIFICATION_TYPE = U
NORAD_CAT_ID   = 67929
ELEMENT_SET_NO = 999
REV_AT_EPOCH   = 438
BSTAR          = -.19087437E-1
MEAN_MOTION_DOT = -.1921489E-1
MEAN_MOTION_DDOT = 0

CCSDS_OMM_VERS = 2.0
CREATION_DATE  = 
ORIGINATOR     = 

OBJECT_NAME    = STARLINK-36865
OBJECT_ID      = 2026-036AC
CENTER_NAME    = EARTH
REF_FRAME      = TEME
TIME_SYSTEM    = UTC
MEAN_ELEMENT_THEORY = SGP/SGP4

EPOCH          = 2026-03-14T06:00:02.000160
MEAN_MOTION    = 15.72526992
ECCENTRICITY   = .00017539
INCLINATION    = 42.9993
RA_OF_ASC_NODE = 221.6662
ARG_OF_PERICENTER = 274.1765
MEAN_ANOMALY   = 120.1939

EPHEMERIS_TYPE = 0
CLASSIFICATION_TYPE = U
NORAD_CAT_ID   = 67930
ELEMENT_SET_NO = 999
REV_AT_EPOCH   = 438
BSTAR          = -.15776227E-1
MEAN_MOTION_DOT = -.1890164E-1
MEAN_MOTION_DDOT = 0

CCSDS_OMM_VERS = 2.0
CREATION_DATE  = 
ORIGINATOR     = 

OBJECT_NAME    = STARLINK-36781
OBJECT_ID      = 2026-036AD
CENTER_NAME    = EARTH
REF_FRAME      = TEME
TIME_SYSTEM    = UTC
MEAN_ELEMENT_THEORY = SGP/SGP4

EPOCH          = 2026-03-14T06:00:02.000160
MEAN_MOTION    = 15.71934303
ECCENTRICITY   = .00016153
INCLINATION    = 42.9991
RA_OF_ASC_NODE = 221.6899
ARG_OF_PERICENTER = 274.5518
MEAN_ANOMALY   = 110.5356

EPHEMERIS_TYPE = 0
CLASSIFICATION_TYPE = U
NORAD_CAT_ID   = 67931
ELEMENT_SET_NO = 999
REV_AT_EPOCH   = 438
BSTAR          = -.16195714E-1
MEAN_MOTION_DOT = -.1929759E-1
MEAN_MOTION_DDOT = 0

CCSDS_OMM_VERS = 2.0
CREATION_DATE  = 
ORIGINATOR     = 

OBJECT_NAME    = STARLINK-36301
OBJECT_ID      = 2026-037A
CENTER_NAME    = EARTH
REF_FRAME      = TEME
TIME_SYSTEM    = UTC
MEAN_ELEMENT_THEORY = SGP/SGP4

EPOCH          = 2026-03-14T06:01:08.355360
MEAN_MOTION    = 15.82081120
ECCENTRICITY   = .00017808
INCLINATION    = 42.9978
RA_OF_ASC_NODE = 170.6245
ARG_OF_PERICENTER = 299.7026
MEAN_ANOMALY   = 60.3669

EPHEMERIS_TYPE = 0
CLASSIFICATION_TYPE = U
NORAD_CAT_ID   = 67932
ELEMENT_SET_NO = 999
REV_AT_EPOCH   = 397
BSTAR          = .17039235E-2
MEAN_MOTION_DOT = .375395E-2
MEAN_MOTION_DDOT = 0

